STARLINK-31792          
1 60132U 24118V   26068.26077840 -.00001876  00000+0 -51265-4 0  9990
2 60132  53.1621  26.3239 0001186 132.0273 228.0828 15.30184207 95668
TEVEL2-1                
1 63217U 25052H   26068.64782323  .00020683  00000+0  70600-3 0  9994
2 63217  97.3991 324.7682 0004767 104.8919 255.2849 15.30341923 54855
